KINEIS-2A               
1 62932U 25028E   26068.68766123  .00001477  00000+0  24267-3 0  9992
2 62932  98.0771 124.1949 0003140 197.3611 162.7489 14.72099682 57964
KINEIS-4E               
1 63300U 25056A   26067.46300863  .00003119  00000+0  50056-3 0  9993
2 63300  97.9937 193.7908 0000846 180.4919 179.6288 14.72360351 52308
