[{"OBJECT_NAME":"KINEIS-2A","OBJECT_ID":"2025-028E","EPOCH":"2026-03-09T16:30:13.930272","MEAN_MOTION":14.72099682,"ECCENTRICITY":0.00031402,"INCLINATION":98.0771,"RA_OF_ASC_NODE":124.1949,"ARG_OF_PERICENTER":197.3611,"MEAN_ANOMALY":162.7489,"EPHEMERIS_TYPE":0,"CLASSIFICATION_TYPE":"U","NORAD_CAT_ID":62932,"ELEMENT_SET_NO":999,"REV_AT_EPOCH":5796,"BSTAR":0.00024267113,"MEAN_MOTION_DOT":1.477e-5,"MEAN_MOTION_DDOT":0},{"OBJECT_NAME":"KINEIS-4E","OBJECT_ID":"2025-056A","EPOCH":"2026-03-08T11:06:43.945632","MEAN_MOTION":14.72360351,"ECCENTRICITY":8.464e-5,"INCLINATION":97.9937,"RA_OF_ASC_NODE":193.7908,"ARG_OF_PERICENTER":180.4919,"MEAN_ANOMALY":179.6288,"EPHEMERIS_TYPE":0,"CLASSIFICATION_TYPE":"U","NORAD_CAT_ID":63300,"ELEMENT_SET_NO":999,"REV_AT_EPOCH":5230,"BSTAR":0.00050056245,"MEAN_MOTION_DOT":3.119e-5,"MEAN_MOTION_DDOT":0}]
